[{"OBJECT_NAME":"VIZARD-METEO (RS38S)","OBJECT_ID":"2023-091Z","EPOCH":"2026-03-09T23:01:09.168960","MEAN_MOTION":15.32764799,"ECCENTRICITY":0.00087615,"INCLINATION":97.5192,"RA_OF_ASC_NODE":136.6522,"ARG_OF_PERICENTER":71.7666,"MEAN_ANOMALY":288.4529,"EPHEMERIS_TYPE":0,"CLASSIFICATION_TYPE":"U","NORAD_CAT_ID":57189,"ELEMENT_SET_NO":999,"REV_AT_EPOCH":14947,"BSTAR":0.00066106249,"MEAN_MOTION_DOT":0.00020895,"MEAN_MOTION_DDOT":0},{"OBJECT_NAME":"STARLINK-34244","OBJECT_ID":"2025-190A","EPOCH":"2026-03-09T13:33:07.280640","MEAN_MOTION":15.30183293,"ECCENTRICITY":0.0001286,"INCLINATION":53.1581,"RA_OF_ASC_NODE":168.9585,"ARG_OF_PERICENTER":83.6492,"MEAN_ANOMALY":276.4655,"EPHEMERIS_TYPE":0,"CLASSIFICATION_TYPE":"U","NORAD_CAT_ID":65351,"ELEMENT_SET_NO":999,"REV_AT_EPOCH":2973,"BSTAR":0.0013075,"MEAN_MOTION_DOT":0.00038546,"MEAN_MOTION_DDOT":0}]
